{
  "norad_id": 67070,
  "name": "DEAR-5",
  "history": [
    {
      "epoch": "2026-03-28T19:37:26.172192",
      "apogee_km": 525.4631756079752,
      "perigee_km": 502.381393381831,
      "latitude_deg": 38.820329882660104,
      "longitude_deg": -114.50425311992876,
      "semi_major_axis_km": 6892.059284494903,
      "eccentricity": 0.00167452,
      "inclination_deg": 41.3566,
      "raan_deg": 216.2626,
      "arg_perigee_deg": 26.9877,
      "mean_anomaly_deg": 333.1812,
      "mean_motion_rev_day": 15.17327242
    }
  ]
}