{"fetched_at":"2026-03-29T16:36:15Z","count":15609,"tles":[{"name":"DEAR-5","line1":"1 67070U 25296B   26087.81766403  .00006480  00000+0  32746-3 0  9994","line2":"2 67070  41.3566 216.2626 0016745  26.9877 333.1812 15.17327242 16062","category":"Other"}]}